#aV2019  9  8  0  0  0.00000000     288 DD+AD WGS84 FIT  NGA
## 2070      0.00000000   300.00000000 58734 0.0000000000000
+   31     1  2  3  5  6  7  8  9 10 11 12 13 14 15 16 17 18
+         19 20 21 22 23 24 25 26 27 28 29 30 31 32  0  0  0
+          0  0  0  0  0  0  0  0  0  0  0  0  0  0  0  0  0
+          0  0  0  0  0  0  0  0  0  0  0  0  0  0  0  0  0
+          0  0  0  0  0  0  0  0  0  0  0  0  0  0  0  0  0
++         2  2  2  2  2  2  2  2  2  2  2  2  2  2  2  2  2
++         2  2  2  2  2  2  2  2  2  2  2  2  2  2  0  0  0
++         0  0  0  0  0  0  0  0  0  0  0  0  0  0  0  0  0
++         0  0  0  0  0  0  0  0  0  0  0  0  0  0  0  0  0
++         0  0  0  0  0  0  0  0  0  0  0  0  0  0  0  0  0
%c cc cc ccc ccc cccc cccc cccc cccc ccccc ccccc ccccc ccccc
%c cc cc ccc ccc cccc cccc cccc cccc ccccc ccccc ccccc ccccc
%f  0.0000000  0.000000000  0.00000000000  0.000000000000000
%f  0.0000000  0.000000000  0.00000000000  0.000000000000000
%i    0    0    0    0      0      0      0      0         0
%i    0    0    0    0      0      0      0      0         0
/*      NGA, ST. LOUIS,MO.                                  
/*   EPHEMERIS COMPUTED FROM 2 DAYS OF DATA                 
/*   EPOCHA v5 SMOOTHER                                     
/*   G1762 IERS2010 SATAF SATAPC                            
*  2019  9  8  8  5  0.00000000
P  1  10741.382769 -20435.895647 -13043.022368   -121.894937                    
V  1  13842.066694  -8897.439478  26045.006696     -0.122969                    
P  2 -21113.859059  14664.505066  -5763.715691   -300.459087                    
V  2   3723.460036  -7875.637125 -30579.250172     -0.082236                    
P  3    658.242728 -15648.305270 -21515.905826     -8.830020                    
V  3  25698.548221   8831.143308  -5562.807134     -0.038028                    
P  5 -20577.396909   5207.803149  15956.161800     -1.235566                    
V  5 -18789.255913  -8333.578862 -21131.700485     -0.003379                    
P  6 -19601.271874    774.653438 -17879.140000    -50.531311                    
V  6  16462.206365 -15737.159764 -18660.496244     -0.123295                    
P  7  -4532.350022 -15671.059797  21155.021498   -101.903156                    
V  7  20940.622638 -15998.909886  -7939.719532     -0.079795                    
P  8   6404.798744 -20875.478971  15003.887988     -5.709358                    
V  8   5561.952975  18335.463708  23386.459118     -0.014078                    
P  9  -7987.057859 -24947.697427   4317.917456    -25.964013                    
V  9   1910.238452  -6021.971716 -30946.377582     -0.094173                    
P 10  23736.153377  11495.724102   4065.759012    -45.238508                    
V 10  -5597.604498    643.228590  31130.084349     -0.150776                    
P 11   7400.365405 -25356.305526  -4538.968870   -513.098404                    
V 11   5722.214376  -3076.078255  29702.554478      0.106738                    
P 12  -5519.635742  13799.478464 -22226.991761    206.137572                    
V 12 -25287.107806 -11165.548428   -501.389610     -0.037977                    
P 13 -12912.977455  12089.122161  19679.927033    -45.489488                    
V 13  -2523.931100 -25135.349042  13766.692766      0.020259                    
P 14  15222.448187   3661.957051 -21152.979053    -62.447370                    
V 14   2219.769369  27515.642923   6086.341889      0.019713                    
P 15  -4470.349133  21934.969980  13710.508954   -288.492607                    
V 15  -8069.123770 -16548.336340  23761.798805      0.026977                    
P 16  21561.991618  -1454.813863  15538.450172    -72.178390                    
V 16  17474.021030   9524.895442 -22655.810601     -0.034520                    
P 17 -13748.683377 -13245.630876 -18087.928900    121.591556                    
V 17  -1686.937329 -23702.848689  18145.961596      0.069963                    
P 18  16271.842771 -20364.457397  -5289.721850     84.089767                    
V 18   6464.724460  -2031.583179  30749.251679      0.028721                    
P 19 -14833.993892  -6151.627452 -21450.177911   -270.136013                    
V 19  -1493.184460 -26443.920356   8772.393642      0.051209                    
P 20  18406.662365  14076.488143  13030.004465    526.788699                    
V 20 -16938.773329   -885.479148  24511.414382      0.001385                    
P 21   9318.827685  12928.552259  22052.640007   -122.493239                    
V 21 -19022.534654  17981.371374  -2415.192766      0.064924                    
P 22   8849.021627 -13662.837239 -20754.780885   -752.647076                    
V 22  25817.468759   7957.079670   5801.072251     -0.039506                    
P 23    -82.994532 -25373.905175  -6791.448508   -168.016322                    
V 23   5318.987237   8301.600315 -29982.736036      0.020193                    
P 24 -11775.087495  21378.217253 -10208.926180     -1.874126                    
V 24 -11681.831722   6398.452568  27643.878127     -0.004741                    
P 25   9937.752016  16930.055501 -18218.916464    -11.277376                    
V 25 -21653.470638  -6559.529498 -17870.540104     -0.016452                    
P 26  25592.189115   3486.722506   6579.721921     34.013718                    
V 26   7030.948635   5327.251935 -29911.341626      0.088496                    
P 27  12975.061192  -8728.905763  21305.172928    -48.857504                    
V 27   5569.581676  26759.963276   7822.314810     -0.120342                    
P 28 -22405.741303 -13661.136085   4310.931021    762.780307                    
V 28   5191.729928     40.659228  31651.540188     -0.010203                    
P 29   4302.686991  26113.581326   2055.442629    103.544715                    
V 29  -1723.844527   2858.671458 -32176.706018     -0.101802                    
P 30 -14661.179819  -7834.540006  20784.175992    -36.271663                    
V 30  20324.707134 -16794.760371   7823.231419     -0.079578                    
P 31  21039.611941  -2101.856783 -16349.753636     11.842277                    
V 31 -15074.974287  14098.550714 -20777.963058     -0.026043                    
P 32  15132.380895  12601.954278 -17817.153909     49.146283                    
V 32   2585.848319  22625.987550  18012.633629      0.138451                    
EOF
